CORAL                   
1 67684U 98067YA  26087.90436496  .00094825  00000+0  12483-2 0  9992
2 67684  51.6304 335.4688 0012771 245.0966 114.8699 15.57580097  7786
GXIBA-1                 
1 67685U 98067YB  26087.89821257  .00051175  00000+0  77797-3 0  9995
2 67685  51.6321 336.1777 0011963 252.5116 107.4567 15.53958389  7775
UITMSAT-2               
1 67686U 98067YC  26087.88356242  .00059365  00000+0  87080-3 0  9997
2 67686  51.6324 336.0822 0009061 224.2603 135.7664 15.54908203  7775
HMU-SAT2                
1 67687U 98067YD  26087.90315062  .00050682  00000+0  77881-3 0  9997
2 67687  51.6326 336.2133 0008619 227.1165 132.9102 15.53705235  7694
LEOPARD                 
1 67688U 98067YE  26087.89024430  .00054959  00000+0  82004-3 0  9996
2 67688  51.6332 336.1274 0008815 224.8426 135.1853 15.54477130  7698
CREW DRAGON 12          
1 67796U 26031A   26087.87455012  .00011057  00000+0  21128-3 0  9992
2 67796  51.6344 337.5169 0006219 244.1555 115.8792 15.48616916559265
PROGRESS-MS 33          
1 68319U 26058A   26087.87455012  .00011057  00000+0  21128-3 0  9993
2 68319  51.6344 337.5169 0006219 244.1555 115.8792 15.48616916   707
